[
  {
    "OBJECT_NAME": "GAOFEN-3",
    "OBJECT_ID": "2016-049A",
    "EPOCH": "2025-05-06T04:21:05.176224",
    "MEAN_MOTION": 14.42149115,
    "ECCENTRICITY": 8.6e-05,
    "INCLINATION": 98.4042,
    "RA_OF_ASC_NODE": 135.0601,
    "ARG_OF_PERICENTER": 80.2461,
    "MEAN_ANOMALY": 279.8826,
    "EPHEMERIS_TYPE": 0,
    "CLASSIFICATION_TYPE": "U",
    "NORAD_CAT_ID": 41727,
    "ELEMENT_SET_NO": 999,
    "REV_AT_EPOCH": 45997,
    "BSTAR": 4.8484e-05,
    "MEAN_MOTION_DOT": 1.16e-06,
    "MEAN_MOTION_DDOT": 0
  },
  {
    "OBJECT_NAME": "SKYSAT-C4",
    "OBJECT_ID": "2016-058B",
    "EPOCH": "2025-05-05T14:35:48.302016",
    "MEAN_MOTION": 15.35920793,
    "ECCENTRICITY": 7.99e-05,
    "INCLINATION": 96.9601,
    "RA_OF_ASC_NODE": 162.2825,
    "ARG_OF_PERICENTER": 47.7212,
    "MEAN_ANOMALY": 312.4101,
    "EPHEMERIS_TYPE": 0,
    "CLASSIFICATION_TYPE": "U",
    "NORAD_CAT_ID": 41771,
    "ELEMENT_SET_NO": 999,
    "REV_AT_EPOCH": 48267,
    "BSTAR": 0.00041042,
    "MEAN_MOTION_DOT": 0.00014285,
    "MEAN_MOTION_DDOT": 0
  },
  {
    "OBJECT_NAME": "SKYSAT-C5",
    "OBJECT_ID": "2016-058C",
    "EPOCH": "2025-05-05T15:40:21.833472",
    "MEAN_MOTION": 15.3600282,
    "ECCENTRICITY": 0.0008557,
    "INCLINATION": 97.1042,
    "RA_OF_ASC_NODE": 177.4436,
    "ARG_OF_PERICENTER": 158.3656,
    "MEAN_ANOMALY": 201.7951,
    "EPHEMERIS_TYPE": 0,
    "CLASSIFICATION_TYPE": "U",
    "NORAD_CAT_ID": 41772,
    "ELEMENT_SET_NO": 999,
    "REV_AT_EPOCH": 48122,
    "BSTAR": 0.00039714,
    "MEAN_MOTION_DOT": 0.0001387,
    "MEAN_MOTION_DDOT": 0
  },
  {
    "OBJECT_NAME": "SKYSAT-C2",
    "OBJECT_ID": "2016-058D",
    "EPOCH": "2025-05-05T15:47:37.943520",
    "MEAN_MOTION": 15.32135507,
    "ECCENTRICITY": 0.0006041,
    "INCLINATION": 97.0577,
    "RA_OF_ASC_NODE": 160.0966,
    "ARG_OF_PERICENTER": 87.5828,
    "MEAN_ANOMALY": 272.6106,
    "EPHEMERIS_TYPE": 0,
    "CLASSIFICATION_TYPE": "U",
    "NORAD_CAT_ID": 41773,
    "ELEMENT_SET_NO": 999,
    "REV_AT_EPOCH": 48246,
    "BSTAR": 0.00040177,
    "MEAN_MOTION_DOT": 0.00012406,
    "MEAN_MOTION_DDOT": 0
  },
  {
    "OBJECT_NAME": "SKYSAT-C3",
    "OBJECT_ID": "2016-058E",
    "EPOCH": "2025-05-05T20:29:17.524320",
    "MEAN_MOTION": 15.36971409,
    "ECCENTRICITY": 0.0001328,
    "INCLINATION": 96.9571,
    "RA_OF_ASC_NODE": 170.7765,
    "ARG_OF_PERICENTER": 95.4338,
    "MEAN_ANOMALY": 264.7059,
    "EPHEMERIS_TYPE": 0,
    "CLASSIFICATION_TYPE": "U",
    "NORAD_CAT_ID": 41774,
    "ELEMENT_SET_NO": 999,
    "REV_AT_EPOCH": 48326,
    "BSTAR": 0.00040042,
    "MEAN_MOTION_DOT": 0.00014415,
    "MEAN_MOTION_DDOT": 0
  },
  {
    "OBJECT_NAME": "ALSAT 1B",
    "OBJECT_ID": "2016-059C",
    "EPOCH": "2025-05-06T03:25:42.557952",
    "MEAN_MOTION": 14.71798221,
    "ECCENTRICITY": 0.0010925,
    "INCLINATION": 97.7908,
    "RA_OF_ASC_NODE": 147.3063,
    "ARG_OF_PERICENTER": 94.2966,
    "MEAN_ANOMALY": 265.9491,
    "EPHEMERIS_TYPE": 0,
    "CLASSIFICATION_TYPE": "U",
    "NORAD_CAT_ID": 41785,
    "ELEMENT_SET_NO": 999,
    "REV_AT_EPOCH": 46069,
    "BSTAR": 0.00011847,
    "MEAN_MOTION_DOT": 6.94e-06,
    "MEAN_MOTION_DDOT": 0
  },
  {
    "OBJECT_NAME": "PATHFINDER 1",
    "OBJECT_ID": "2016-059E",
    "EPOCH": "2025-05-05T14:29:09.163392",
    "MEAN_MOTION": 14.66864608,
    "ECCENTRICITY": 0.0030263,
    "INCLINATION": 97.8147,
    "RA_OF_ASC_NODE": 138.6565,
    "ARG_OF_PERICENTER": 66.7304,
    "MEAN_ANOMALY": 293.7082,
    "EPHEMERIS_TYPE": 0,
    "CLASSIFICATION_TYPE": "U",
    "NORAD_CAT_ID": 41787,
    "ELEMENT_SET_NO": 999,
    "REV_AT_EPOCH": 45994,
    "BSTAR": 0.00022607,
    "MEAN_MOTION_DOT": 1.225e-05,
    "MEAN_MOTION_DDOT": 0
  },
  {
    "OBJECT_NAME": "SCATSAT 1",
    "OBJECT_ID": "2016-059H",
    "EPOCH": "2025-05-05T21:18:48.825504",
    "MEAN_MOTION": 14.78100973,
    "ECCENTRICITY": 0.0057484,
    "INCLINATION": 98.1719,
    "RA_OF_ASC_NODE": 179.5313,
    "ARG_OF_PERICENTER": 118.2016,
    "MEAN_ANOMALY": 242.5016,
    "EPHEMERIS_TYPE": 0,
    "CLASSIFICATION_TYPE": "U",
    "NORAD_CAT_ID": 41790,
    "ELEMENT_SET_NO": 999,
    "REV_AT_EPOCH": 4139,
    "BSTAR": 0.00030372,
    "MEAN_MOTION_DOT": 2.201e-05,
    "MEAN_MOTION_DDOT": 0
  },
  {
    "OBJECT_NAME": "GOKTURK 1A",
    "OBJECT_ID": "2016-073A",
    "EPOCH": "2025-05-06T04:10:59.031840",
    "MEAN_MOTION": 14.62778027,
    "ECCENTRICITY": 0.0001412,
    "INCLINATION": 98.1175,
    "RA_OF_ASC_NODE": 21.7793,
    "ARG_OF_PERICENTER": 84.5752,
    "MEAN_ANOMALY": 275.5611,
    "EPHEMERIS_TYPE": 0,
    "CLASSIFICATION_TYPE": "U",
    "NORAD_CAT_ID": 41875,
    "ELEMENT_SET_NO": 999,
    "REV_AT_EPOCH": 44932,
    "BSTAR": 0.00014433,
    "MEAN_MOTION_DOT": 6.89e-06,
    "MEAN_MOTION_DDOT": 0
  },
  {
    "OBJECT_NAME": "RESOURCESAT-2A",
    "OBJECT_ID": "2016-074A",
    "EPOCH": "2025-05-06T04:35:14.921088",
    "MEAN_MOTION": 14.21690197,
    "ECCENTRICITY": 0.000219,
    "INCLINATION": 98.6064,
    "RA_OF_ASC_NODE": 198.4969,
    "ARG_OF_PERICENTER": 111.8523,
    "MEAN_ANOMALY": 248.2888,
    "EPHEMERIS_TYPE": 0,
    "CLASSIFICATION_TYPE": "U",
    "NORAD_CAT_ID": 41877,
    "ELEMENT_SET_NO": 999,
    "REV_AT_EPOCH": 43648,
    "BSTAR": 0.00012298,
    "MEAN_MOTION_DOT": 2.27e-06,
    "MEAN_MOTION_DDOT": 0
  },
  {
    "OBJECT_NAME": "CARTOSAT-2D",
    "OBJECT_ID": "2017-008A",
    "EPOCH": "2025-05-05T22:07:45.307488",
    "MEAN_MOTION": 15.19324609,
    "ECCENTRICITY": 0.00055,
    "INCLINATION": 97.464,
    "RA_OF_ASC_NODE": 186.3318,
    "ARG_OF_PERICENTER": 206.3266,
    "MEAN_ANOMALY": 153.769,
    "EPHEMERIS_TYPE": 0,
    "CLASSIFICATION_TYPE": "U",
    "NORAD_CAT_ID": 41948,
    "ELEMENT_SET_NO": 999,
    "REV_AT_EPOCH": 45574,
    "BSTAR": 0.0003369,
    "MEAN_MOTION_DOT": 7.052e-05,
    "MEAN_MOTION_DDOT": 0
  },
  {
    "OBJECT_NAME": "SENTINEL-2B",
    "OBJECT_ID": "2017-013A",
    "EPOCH": "2025-05-06T05:08:55.102560",
    "MEAN_MOTION": 14.30819057,
    "ECCENTRICITY": 0.0001244,
    "INCLINATION": 98.5641,
    "RA_OF_ASC_NODE": 201.8345,
    "ARG_OF_PERICENTER": 91.3757,
    "MEAN_ANOMALY": 268.7568,
    "EPHEMERIS_TYPE": 0,
    "CLASSIFICATION_TYPE": "U",
    "NORAD_CAT_ID": 42063,
    "ELEMENT_SET_NO": 999,
    "REV_AT_EPOCH": 42645,
    "BSTAR": 9.6744e-05,
    "MEAN_MOTION_DOT": 2.1e-06,
    "MEAN_MOTION_DDOT": 0
  },
  {
    "OBJECT_NAME": "ZHUHAI-1 02 (CAS-4B)",
    "OBJECT_ID": "2017-034B",
    "EPOCH": "2025-05-06T04:13:23.680992",
    "MEAN_MOTION": 15.59082044,
    "ECCENTRICITY": 0.0018293,
    "INCLINATION": 43.0074,
    "RA_OF_ASC_NODE": 166.2791,
    "ARG_OF_PERICENTER": 47.1382,
    "MEAN_ANOMALY": 313.1015,
    "EPHEMERIS_TYPE": 0,
    "CLASSIFICATION_TYPE": "U",
    "NORAD_CAT_ID": 42759,
    "ELEMENT_SET_NO": 999,
    "REV_AT_EPOCH": 43722,
    "BSTAR": 0.00075798,
    "MEAN_MOTION_DOT": 0.00061348,
    "MEAN_MOTION_DDOT": 0
  },
  {
    "OBJECT_NAME": "NUSAT-3 (MILANESAT)",
    "OBJECT_ID": "2017-034C",
    "EPOCH": "2025-05-06T04:36:11.481984",
    "MEAN_MOTION": 15.78902035,
    "ECCENTRICITY": 0.0020231,
    "INCLINATION": 42.9923,
    "RA_OF_ASC_NODE": 131.8399,
    "ARG_OF_PERICENTER": 93.2902,
    "MEAN_ANOMALY": 267.0283,
    "EPHEMERIS_TYPE": 0,
    "CLASSIFICATION_TYPE": "U",
    "NORAD_CAT_ID": 42760,
    "ELEMENT_SET_NO": 999,
    "REV_AT_EPOCH": 43763,
    "BSTAR": 0.0010452,
    "MEAN_MOTION_DOT": 0.00197183,
    "MEAN_MOTION_DDOT": 0
  }
]