GAOFEN-3                
1 41727U 16049A   25126.18130991  .00000116  00000+0  48484-4 0  9998
2 41727  98.4042 135.0601 0000860  80.2461 279.8826 14.42149115459979
SKYSAT-C4               
1 41771U 16058B   25125.60819794  .00014285  00000+0  41042-3 0  9992
2 41771  96.9601 162.2825 0000799  47.7212 312.4101 15.35920793482670
SKYSAT-C5               
1 41772U 16058C   25125.65303048  .00013870  00000+0  39714-3 0  9990
2 41772  97.1042 177.4436 0008557 158.3656 201.7951 15.36002820481226
SKYSAT-C2               
1 41773U 16058D   25125.65807805  .00012406  00000+0  40177-3 0  9990
2 41773  97.0577 160.0966 0006041  87.5828 272.6106 15.32135507482466
SKYSAT-C3               
1 41774U 16058E   25125.85367505  .00014415  00000+0  40042-3 0  9994
2 41774  96.9571 170.7765 0001328  95.4338 264.7059 15.36971409483262
ALSAT 1B                
1 41785U 16059C   25126.14285368  .00000694  00000+0  11847-3 0  9991
2 41785  97.7908 147.3063 0010925  94.2966 265.9491 14.71798221460697
PATHFINDER 1            
1 41787U 16059E   25125.60357828  .00001225  00000+0  22607-3 0  9991
2 41787  97.8147 138.6565 0030263  66.7304 293.7082 14.66864608459940
SCATSAT 1               
1 41790U 16059H   25125.88806511  .00002201  00000+0  30372-3 0  9996
2 41790  98.1719 179.5313 0057484 118.2016 242.5016 14.78100973 41391
GOKTURK 1A              
1 41875U 16073A   25126.17429435  .00000689  00000+0  14433-3 0  9993
2 41875  98.1175  21.7793 0001412  84.5752 275.5611 14.62778027449329
RESOURCESAT-2A          
1 41877U 16074A   25126.19114492  .00000227  00000+0  12298-3 0  9997
2 41877  98.6064 198.4969 0002190 111.8523 248.2888 14.21690197436486
CARTOSAT-2D             
1 41948U 17008A   25125.92205217  .00007052  00000+0  33690-3 0  9992
2 41948  97.4640 186.3318 0005500 206.3266 153.7690 15.19324609455749
SENTINEL-2B             
1 42063U 17013A   25126.21452665  .00000210  00000+0  96744-4 0  9990
2 42063  98.5641 201.8345 0001244  91.3757 268.7568 14.30819057426457
ZHUHAI-1 02 (CAS-4B)    
1 42759U 17034B   25126.17596853  .00061348  00000+0  75798-3 0  9992
2 42759  43.0074 166.2791 0018293  47.1382 313.1015 15.59082044437227
NUSAT-3 (MILANESAT)     
1 42760U 17034C   25126.19179956  .00197183  00000+0  10452-2 0  9999
2 42760  42.9923 131.8399 0020231  93.2902 267.0283 15.78902035437638
